[
    {
        "Altitude(m)": 716822.4091688677,
        "Argument of Periapsis(deg)": 0.009112096949301655,
        "Eccentricity": 0.0,
        "Inclination(deg)": 45.0,
        "Latitude(deg)": -42.59274031373972,
        "Longitude(deg)": -101.73061695774913,
        "Mean Anomaly(deg)": 287.4083733179847,
        "RAAN(deg)": 64.99139844683344,
        "Satellite Name": "Constellation 1 303",
        "Satellite Number": 303,
        "Semi-Major Axis(m)": 7083131.272910544,
        "Time(s)": 152
    },
    {
        "Altitude(m)": 716815.1977009017,
        "Argument of Periapsis(deg)": 0.009172044955547059,
        "Eccentricity": 0.0,
        "Inclination(deg)": 45.0,
        "Latitude(deg)": -42.575341808704714,
        "Longitude(deg)": -101.65612714863043,
        "Mean Anomaly(deg)": 287.46907445823456,
        "RAAN(deg)": 64.99134185766786,
        "Satellite Name": "Constellation 1 303",
        "Satellite Number": 303,
        "Semi-Major Axis(m)": 7083131.272910544,
        "Time(s)": 153
    },
    {
        "Altitude(m)": 716807.9637515113,
        "Argument of Periapsis(deg)": 0.009231992961792466,
        "Eccentricity": 0.0,
        "Inclination(deg)": 45.0,
        "Latitude(deg)": -42.55788936951869,
        "Longitude(deg)": -101.581680986559,
        "Mean Anomaly(deg)": 287.52977559848443,
        "RAAN(deg)": 64.9912852685023,
        "Satellite Name": "Constellation 1 303",
        "Satellite Number": 303,
        "Semi-Major Axis(m)": 7083131.272910544,
        "Time(s)": 154
    },
    {
        "Altitude(m)": 716800.7073472522,
        "Argument of Periapsis(deg)": 0.009291940968037872,
        "Eccentricity": 0.0,
        "Inclination(deg)": 45.0,
        "Latitude(deg)": -42.540383058292846,
        "Longitude(deg)": -101.50727855530175,
        "Mean Anomaly(deg)": 287.5904767387343,
        "RAAN(deg)": 64.99122867933674,
        "Satellite Name": "Constellation 1 303",
        "Satellite Number": 303,
        "Semi-Major Axis(m)": 7083131.272910544,
        "Time(s)": 155
    },
    {
        "Altitude(m)": 716793.4285147543,
        "Argument of Periapsis(deg)": 0.009351888974283276,
        "Eccentricity": 0.0,
        "Inclination(deg)": 45.0,
        "Latitude(deg)": -42.522822937240626,
        "Longitude(deg)": -101.43292010616643,
        "Mean Anomaly(deg)": 287.65117787898424,
        "RAAN(deg)": 64.99117209017116,
        "Satellite Name": "Constellation 1 303",
        "Satellite Number": 303,
        "Semi-Major Axis(m)": 7083131.272910544,
        "Time(s)": 156
    },
    {
        "Altitude(m)": 716786.127280733,
        "Argument of Periapsis(deg)": 0.00941183698052868,
        "Eccentricity": 0.0,
        "Inclination(deg)": 45.0,
        "Latitude(deg)": -42.505209068677715,
        "Longitude(deg)": -101.35860538561403,
        "Mean Anomaly(deg)": 287.7118790192342,
        "RAAN(deg)": 64.9911155010056,
        "Satellite Name": "Constellation 1 303",
        "Satellite Number": 303,
        "Semi-Major Axis(m)": 7083131.272910544,
        "Time(s)": 157
    },
    {
        "Altitude(m)": 716778.8036719831,
        "Argument of Periapsis(deg)": 0.009471784986774088,
        "Eccentricity": 0.0,
        "Inclination(deg)": 45.0,
        "Latitude(deg)": -42.48754151502003,
        "Longitude(deg)": -101.28433464384088,
        "Mean Anomaly(deg)": 287.77258015948405,
        "RAAN(deg)": 64.99105891184001,
        "Satellite Name": "Constellation 1 303",
        "Satellite Number": 303,
        "Semi-Major Axis(m)": 7083131.272910544,
        "Time(s)": 158
    },
    {
        "Altitude(m)": 716771.4577153838,
        "Argument of Periapsis(deg)": 0.009531732993019492,
        "Eccentricity": 0.0,
        "Inclination(deg)": 45.0,
        "Latitude(deg)": -42.46982033878356,
        "Longitude(deg)": -101.21010796239143,
        "Mean Anomaly(deg)": 287.8332812997339,
        "RAAN(deg)": 64.99100232267445,
        "Satellite Name": "Constellation 1 303",
        "Satellite Number": 303,
        "Semi-Major Axis(m)": 7083131.272910544,
        "Time(s)": 159
    },
    {
        "Altitude(m)": 716764.0894378893,
        "Argument of Periapsis(deg)": 0.009591680999264898,
        "Eccentricity": 0.0,
        "Inclination(deg)": 45.0,
        "Latitude(deg)": -42.452045602583404,
        "Longitude(deg)": -101.13592542225491,
        "Mean Anomaly(deg)": 287.89398243998386,
        "RAAN(deg)": 64.99094573350888,
        "Satellite Name": "Constellation 1 303",
        "Satellite Number": 303,
        "Semi-Major Axis(m)": 7083131.272910544,
        "Time(s)": 160
    },
    {
        "Altitude(m)": 716756.6988665428,
        "Argument of Periapsis(deg)": 0.009651629005510304,
        "Eccentricity": 0.0,
        "Inclination(deg)": 45.0,
        "Latitude(deg)": -42.43421736913277,
        "Longitude(deg)": -101.06178710386624,
        "Mean Anomaly(deg)": 287.95468358023373,
        "RAAN(deg)": 64.99088914434331,
        "Satellite Name": "Constellation 1 303",
        "Satellite Number": 303,
        "Semi-Major Axis(m)": 7083131.272910544,
        "Time(s)": 161
    },
    {
        "Altitude(m)": 716749.2860284575,
        "Argument of Periapsis(deg)": 0.00971157701175571,
        "Eccentricity": 0.0,
        "Inclination(deg)": 45.0,
        "Latitude(deg)": -42.41633570124212,
        "Longitude(deg)": -100.98769308710536,
        "Mean Anomaly(deg)": 288.0153847204836,
        "RAAN(deg)": 64.99083255517775,
        "Satellite Name": "Constellation 1 303",
        "Satellite Number": 303,
        "Semi-Major Axis(m)": 7083131.272910544,
        "Time(s)": 162
    },
    {
        "Altitude(m)": 716741.8509508366,
        "Argument of Periapsis(deg)": 0.009771525018001118,
        "Eccentricity": 0.0,
        "Inclination(deg)": 45.0,
        "Latitude(deg)": -42.39840066181822,
        "Longitude(deg)": -100.91364361939598,
        "Mean Anomaly(deg)": 288.07608586073354,
        "RAAN(deg)": 64.99077596601218,
        "Satellite Name": "Constellation 1 303",
        "Satellite Number": 303,
        "Semi-Major Axis(m)": 7083131.272910544,
        "Time(s)": 163
    },
    {
        "Altitude(m)": 716734.3936609569,
        "Argument of Periapsis(deg)": 0.00983147302424652,
        "Eccentricity": 0.0,
        "Inclination(deg)": 45.0,
        "Latitude(deg)": -42.38041231386375,
        "Longitude(deg)": -100.83963844331598,
        "Mean Anomaly(deg)": 288.1367870009835,
        "RAAN(deg)": 64.9907193768466,
        "Satellite Name": "Constellation 1 303",
        "Satellite Number": 303,
        "Semi-Major Axis(m)": 7083131.272910544,
        "Time(s)": 164
    },
    {
        "Altitude(m)": 716726.9141861834,
        "Argument of Periapsis(deg)": 0.009891421030491928,
        "Eccentricity": 0.0,
        "Inclination(deg)": 45.0,
        "Latitude(deg)": -42.3623707204757,
        "Longitude(deg)": -100.7656778051819,
        "Mean Anomaly(deg)": 288.19748814123335,
        "RAAN(deg)": 64.99066278768103,
        "Satellite Name": "Constellation 1 303",
        "Satellite Number": 303,
        "Semi-Major Axis(m)": 7083131.272910544,
        "Time(s)": 165
    },
    {
        "Altitude(m)": 716719.4125539488,
        "Argument of Periapsis(deg)": 0.009951369036737332,
        "Eccentricity": 0.0,
        "Inclination(deg)": 45.0,
        "Latitude(deg)": -42.34427594484499,
        "Longitude(deg)": -100.6917617826599,
        "Mean Anomaly(deg)": 288.2581892814832,
        "RAAN(deg)": 64.99060619851547,
        "Satellite Name": "Constellation 1 303",
        "Satellite Number": 303,
        "Semi-Major Axis(m)": 7083131.272910544,
        "Time(s)": 166
    },
    {
        "Altitude(m)": 716711.8887917856,
        "Argument of Periapsis(deg)": 0.010011317042982738,
        "Eccentricity": 0.0,
        "Inclination(deg)": 45.0,
        "Latitude(deg)": -42.326128050255505,
        "Longitude(deg)": -100.6178904528636,
        "Mean Anomaly(deg)": 288.3188904217331,
        "RAAN(deg)": 64.9905496093499,
        "Satellite Name": "Constellation 1 303",
        "Satellite Number": 303,
        "Semi-Major Axis(m)": 7083131.272910544,
        "Time(s)": 167
    },
    {
        "Altitude(m)": 716704.3429272849,
        "Argument of Periapsis(deg)": 0.010071265049228144,
        "Eccentricity": 0.0,
        "Inclination(deg)": 45.0,
        "Latitude(deg)": -42.307927100083155,
        "Longitude(deg)": -100.54406389235443,
        "Mean Anomaly(deg)": 288.37959156198303,
        "RAAN(deg)": 64.99049302018433,
        "Satellite Name": "Constellation 1 303",
        "Satellite Number": 303,
        "Semi-Major Axis(m)": 7083131.272910544,
        "Time(s)": 168
    },
    {
        "Altitude(m)": 716696.7749881353,
        "Argument of Periapsis(deg)": 0.01013121305547355,
        "Eccentricity": 0.0,
        "Inclination(deg)": 45.0,
        "Latitude(deg)": -42.28967315779511,
        "Longitude(deg)": -100.47028217714191,
        "Mean Anomaly(deg)": 288.44029270223297,
        "RAAN(deg)": 64.99043643101876,
        "Satellite Name": "Constellation 1 303",
        "Satellite Number": 303,
        "Semi-Major Axis(m)": 7083131.272910544,
        "Time(s)": 169
    },
    {
        "Altitude(m)": 716689.1850020903,
        "Argument of Periapsis(deg)": 0.010191161061718957,
        "Eccentricity": 0.0,
        "Inclination(deg)": 45.0,
        "Latitude(deg)": -42.27136628694885,
        "Longitude(deg)": -100.39654538268411,
        "Mean Anomaly(deg)": 288.50099384248284,
        "RAAN(deg)": 64.99037984185318,
        "Satellite Name": "Constellation 1 303",
        "Satellite Number": 303,
        "Semi-Major Axis(m)": 7083131.272910544,
        "Time(s)": 170
    }
]